ORBCOMM FM20            
1 25416U 98046D   24274.53655620  .00003136  00000+0  11196-2 0  9998
2 25416  44.9953 329.8685 0002051 264.6258  95.4355 14.35907840366924
ORBCOMM FM16            
1 25417U 98046E   24274.59550505  .00004539  00000+0  15593-2 0  9994
2 25417  44.9944 324.1646 0001757  43.7743 316.3244 14.37141812366885
ORBCOMM FM15            
1 25418U 98046F   24274.58120220  .00004072  00000+0  14126-2 0  9994
2 25418  44.9974 328.6481 0001202  47.9108 312.1842 14.36828812366880
ORBCOMM FM14            
1 25419U 98046G   24274.58570201  .00004070  00000+0  14052-2 0  9999
2 25419  44.9962 327.5080 0001085 336.8754  23.2045 14.37066749366842
ORBCOMM FM13            
1 25420U 98046H   24274.57096439  .00003845  00000+0  13538-2 0  9993
2 25420  44.9984 333.3312 0002803  29.0057 331.0946 14.36185434365893
ORBCOMM FM21            
1 25475U 98053A   24274.53249569  .00003692  00000+0  13065-2 0  9996
2 25475  45.0084  58.0751 0000755 219.9174 140.1618 14.36017007359908
ORBCOMM FM22            
1 25476U 98053B   24274.52080712  .00004749  00000+0  16440-2 0  9993
2 25476  45.0076  54.7618 0001319 317.0445  43.0300 14.36695258359902
ORBCOMM FM23            
1 25477U 98053C   24274.55603229  .00004004  00000+0  14110-2 0  9997
2 25477  45.0081  60.3391 0000777 295.8843  64.1925 14.36074603360052
